S-NET D                 
1 43186U 18014G   26165.62491194  .00005138  00000+0  26580-3 0  9992
2 43186  97.5371  70.4319 0009168  38.0119 322.1759 15.16651784458376
S-NET B                 
1 43187U 18014H   26165.63631422  .00004632  00000+0  24019-3 0  9997
2 43187  97.5378  70.4300 0009687  33.4028 326.7814 15.16621899458374
S-NET A                 
1 43188U 18014J   26165.62380336  .00005235  00000+0  27069-3 0  9990
2 43188  97.5387  70.6254 0009569  34.0888 326.0957 15.16659834458376
S-NET C                 
1 43189U 18014K   26165.64017720  .00004528  00000+0  23488-3 0  9992
2 43189  97.5402  70.7161 0010738  26.1004 334.0768 15.16613951456923
PAZ                     
1 43215U 18020A   26165.86748742  .00001679  00000+0  83153-4 0  9998
2 43215  97.4454 173.2863 0001694  85.4214 274.7214 15.19145576460656
GOES 17                 
1 43226U 18022A   26165.81356215 -.00000177  00000+0  00000+0 0  9995
2 43226   0.9312  85.7532 0000388  33.8569 346.8805  1.00270028 30408
LKW-4                   
1 43236U 18025A   26165.51709610  .00039764  00000+0  45443-3 0  9994
2 43236  97.6334 336.1817 0001815 304.7112  55.3974 15.62081787459617
ZHUHAI-1 OVS-02         
1 43440U 18040B   26165.86934542  .00006937  00000+0  28062-3 0  9994
2 43440  97.0382 183.2363 0001561 252.2849 107.8220 15.24998374452369
ZHUHAI-1 OHS-02         
1 43441U 18040C   26165.85572869  .00007054  00000+0  27793-3 0  9995
2 43441  97.0366 190.1607 0007816 229.5509 130.5049 15.25852467113920
GAOFEN-6                
1 43484U 18048A   26165.83492310  .00000594  00000+0  92174-4 0  9998
2 43484  97.8551 228.6412 0011616 175.0156 185.1172 14.76596077433046
LUOJIA-1 01             
1 43485U 18048B   26165.88678299  .00001628  00000+0  18642-3 0  9992
2 43485  97.8110 244.1107 0010103 124.5097 235.7074 14.87275952433877
PAKTES 1A               
1 43529U 18056A   26165.86876953  .00002755  00000+0  23099-3 0  9999
2 43529  98.1300 322.2568 0022240 113.3549 247.0015 14.99101918431572
PRSS-1                  
1 43530U 18056B   26165.82672370  .00001327  00000+0  17374-3 0  9997
2 43530  97.7826 233.7618 0001689  75.3812 284.7589 14.81987522428088
HAIYANG-1C              
1 43609U 18068A   26165.80320560  .00000243  00000+0  10221-3 0  9996
2 43609  98.5197 238.1455 0012073 100.4601 259.7945 14.34178740406747
SSTL S1-4               
1 43618U 18071A   26165.88129947  .00000659  00000+0  63333-4 0  9998
2 43618  97.5047  37.5929 0001454  99.3520 260.7866 14.96181059422594
HAIYANG-2B              
1 43655U 18081A   26165.84176582  .00000056  00000+0  97263-4 0  9993
2 43655  99.3279 174.6332 0000528   7.6553 352.4607 13.79306891384606
CFOSAT                  
1 43662U 18083A   26165.85017230  .00002948  00000+0  15526-3 0  9991
2 43662  97.3601 170.4498 0002436  92.4483 267.7029 15.16361627422084
TEN-KOH                 
1 43677U 18084G   26165.79347840  .00002012  00000+0  15456-3 0  9998
2 43677  98.0774 358.0563 0011348 121.1232 239.1107 15.02935455415803
DIWATA-2B               
1 43678U 18084H   26165.83579470  .00002835  00000+0  23024-3 0  9993
2 43678  98.1177   1.9424 0012338 177.7083 182.4199 15.00444092415860
STARS-AO                
1 43679U 18084J   26165.83096294  .00005232  00000+0  26836-3 0  9990
2 43679  98.0501  19.6574 0002737 142.1276 218.0148 15.17030015417119
AUTCUBE 2               
1 43681U 18084K   26165.84493061  .00003725  00000+0  23293-3 0  9996
2 43681  98.0711  11.8957 0010138  56.4872 303.7323 15.10078182416573
METOP-C                 
1 43689U 18087A   26165.81564985  .00000095  00000+0  63177-4 0  9991
2 43689  98.6645 225.4626 0001681 132.1938 227.9382 14.21511514394497
ES'HAIL 2               
1 43700U 18090A   26165.83636058  .00000000  00000+0  00000+0 0  9999
2 43700   0.0256   7.5484 0001586 117.4904 104.9712  1.00269664 27651
MOHAMMED VI-B           
1 43717U 18095A   26165.80595365  .00000398  00000+0  63548-4 0  9995
2 43717  97.9562 238.1638 0001241  94.3417 265.7935 14.77114145407833
HYSIS                   
1 43719U 18096A   26165.84300874  .00000956  00000+0  13746-3 0  9995
2 43719  97.9848 232.6094 0001884 107.7132 252.4284 14.78692067407074
COSMOS 2530 (RODNIK-S *)
1 43751U 18097A   26165.88132023  .00000084  00000+0  53331-3 0  9991
2 43751  82.5148 223.7113 0020270  44.5121 315.7583 12.42881104342009
COSMOS 2531 (RODNIK-S *)
1 43752U 18097B   26165.82315795 -.00000027  00000+0 -26986-3 0  9990
2 43752  82.5194 224.8050 0017784  63.1967 297.0929 12.42912356342015
COSMOS 2532 (RODNIK-S *)
1 43753U 18097C   26165.85142792 -.00000032  00000+0 -29990-3 0  9993
2 43753  82.5138 223.5745 0019174  65.0083 295.2985 12.42909335341986
MINXSS-2                
1 43758U 18099A   26165.76291329  .00032381  00000+0  64643-3 0  9995
2 43758  97.4546 241.9761 0006481 265.2726  94.7783 15.46755890413751
SIRION PATHFINDER-2     
1 43759U 18099B   26165.60507885  .00004610  00000+0  25357-3 0  9999
2 43759  97.4257 214.7237 0007378 315.9983  44.0661 15.14528861412237
