OBJECT_NAME,OBJECT_ID,EPOCH,MEAN_MOTION,ECCENTRICITY,INCLINATION,RA_OF_ASC_NODE,ARG_OF_PERICENTER,MEAN_ANOMALY,EPHEMERIS_TYPE,CLASSIFICATION_TYPE,NORAD_CAT_ID,ELEMENT_SET_NO,REV_AT_EPOCH,BSTAR,MEAN_MOTION_DOT,MEAN_MOTION_DDOT
S-NET D,2018-014G,2026-06-14T14:59:52.391616,15.16651784,.0009168,97.5371,70.4319,38.0119,322.1759,0,U,43186,999,45837,.2658E-3,.5138E-4,0
S-NET B,2018-014H,2026-06-14T15:16:17.548608,15.16621899,.0009687,97.5378,70.4300,33.4028,326.7814,0,U,43187,999,45837,.24019E-3,.4632E-4,0
S-NET A,2018-014J,2026-06-14T14:58:16.610304,15.16659834,.0009569,97.5387,70.6254,34.0888,326.0957,0,U,43188,999,45837,.27069E-3,.5235E-4,0
S-NET C,2018-014K,2026-06-14T15:21:51.310080,15.16613951,.0010738,97.5402,70.7161,26.1004,334.0768,0,U,43189,999,45692,.23488E-3,.4528E-4,0
PAZ,2018-020A,2026-06-14T20:49:10.913088,15.19145576,.0001694,97.4454,173.2863,85.4214,274.7214,0,U,43215,999,46065,.83153E-4,.1679E-4,0
GOES 17,2018-022A,2026-06-14T19:31:31.769760,1.00270028,.0000388,0.9312,85.7532,33.8569,346.8805,0,U,43226,999,3040,0,-.177E-5,0
LKW-4,2018-025A,2026-06-14T12:24:37.103040,15.62081787,.00018156,97.6334,336.1817,304.7112,55.3974,0,U,43236,999,45961,.45443329E-3,.39764E-3,0
ZHUHAI-1 OVS-02,2018-040B,2026-06-14T20:51:51.444288,15.24998374,.0001561,97.0382,183.2363,252.2849,107.8220,0,U,43440,999,45236,.28062E-3,.6937E-4,0
ZHUHAI-1 OHS-02,2018-040C,2026-06-14T20:32:14.958816,15.25852467,.0007816,97.0366,190.1607,229.5509,130.5049,0,U,43441,999,11392,.27793E-3,.7054E-4,0
GAOFEN-6,2018-048A,2026-06-14T20:02:17.355840,14.76596077,.0011616,97.8551,228.6412,175.0156,185.1172,0,U,43484,999,43304,.92174E-4,.594E-5,0
LUOJIA-1 01,2018-048B,2026-06-14T21:16:58.050336,14.87275952,.0010103,97.8110,244.1107,124.5097,235.7074,0,U,43485,999,43387,.18642E-3,.1628E-4,0
PAKTES 1A,2018-056A,2026-06-14T20:51:01.687392,14.99101918,.002224,98.1300,322.2568,113.3549,247.0015,0,U,43529,999,43157,.23099E-3,.2755E-4,0
PRSS-1,2018-056B,2026-06-14T19:50:28.927680,14.81987522,.0001689,97.7826,233.7618,75.3812,284.7589,0,U,43530,999,42808,.17374E-3,.1327E-4,0
HAIYANG-1C,2018-068A,2026-06-14T19:16:36.963840,14.34178740,.0012073,98.5197,238.1455,100.4601,259.7945,0,U,43609,999,40674,.10221E-3,.243E-5,0
SSTL S1-4,2018-071A,2026-06-14T21:09:04.274208,14.96181059,.0001454,97.5047,37.5929,99.3520,260.7866,0,U,43618,999,42259,.63333E-4,.659E-5,0
HAIYANG-2B,2018-081A,2026-06-14T20:12:08.566848,13.79306891,.0000528,99.3279,174.6332,7.6553,352.4607,0,U,43655,999,38460,.97263E-4,.56E-6,0
CFOSAT,2018-083A,2026-06-14T20:24:14.886720,15.16361627,.0002436,97.3601,170.4498,92.4483,267.7029,0,U,43662,999,42208,.15526E-3,.2948E-4,0
TEN-KOH,2018-084G,2026-06-14T19:02:36.533760,15.02935455,.0011348,98.0774,358.0563,121.1232,239.1107,0,U,43677,999,41580,.15456E-3,.2012E-4,0
DIWATA-2B,2018-084H,2026-06-14T20:03:32.662080,15.00444092,.0012338,98.1177,1.9424,177.7083,182.4199,0,U,43678,999,41586,.23024E-3,.2835E-4,0
STARS-AO,2018-084J,2026-06-14T19:56:35.198016,15.17030015,.0002737,98.0501,19.6574,142.1276,218.0148,0,U,43679,999,41711,.26836E-3,.5232E-4,0
AUTCUBE 2,2018-084K,2026-06-14T20:16:42.004704,15.10078182,.0010138,98.0711,11.8957,56.4872,303.7323,0,U,43681,999,41657,.23293E-3,.3725E-4,0
METOP-C,2018-087A,2026-06-14T19:34:32.147040,14.21511514,.0001681,98.6645,225.4626,132.1938,227.9382,0,U,43689,999,39449,.63177E-4,.95E-6,0
ES'HAIL 2,2018-090A,2026-06-14T20:04:21.554112,1.00269664,.0001586,0.0256,7.5484,117.4904,104.9712,0,U,43700,999,2765,0,0,0
MOHAMMED VI-B,2018-095A,2026-06-14T19:20:34.395360,14.77114145,.0001241,97.9562,238.1638,94.3417,265.7935,0,U,43717,999,40783,.63548E-4,.398E-5,0
HYSIS,2018-096A,2026-06-14T20:13:55.955136,14.78692067,.0001884,97.9848,232.6094,107.7132,252.4284,0,U,43719,999,40707,.13746E-3,.956E-5,0
COSMOS 2530 (RODNIK-S 16),2018-097A,2026-06-14T21:09:06.067872,12.42881104,.002027,82.5148,223.7113,44.5121,315.7583,0,U,43751,999,34200,.53331E-3,.84E-6,0
COSMOS 2531 (RODNIK-S 17),2018-097B,2026-06-14T19:45:20.846880,12.42912356,.0017784,82.5194,224.8050,63.1967,297.0929,0,U,43752,999,34201,-.26986E-3,-.27E-6,0
COSMOS 2532 (RODNIK-S 18),2018-097C,2026-06-14T20:26:03.372288,12.42909335,.0019174,82.5138,223.5745,65.0083,295.2985,0,U,43753,999,34198,-.2999E-3,-.32E-6,0
MINXSS-2,2018-099A,2026-06-14T18:18:35.708256,15.46755890,.0006481,97.4546,241.9761,265.2726,94.7783,0,U,43758,999,41375,.64643E-3,.32381E-3,0
SIRION PATHFINDER-2,2018-099B,2026-06-14T14:31:18.812640,15.14528861,.0007378,97.4257,214.7237,315.9983,44.0661,0,U,43759,999,41223,.25357E-3,.461E-4,0
